OBJECT_NAME,OBJECT_ID,EPOCH,MEAN_MOTION,ECCENTRICITY,INCLINATION,RA_OF_ASC_NODE,ARG_OF_PERICENTER,MEAN_ANOMALY,EPHEMERIS_TYPE,CLASSIFICATION_TYPE,NORAD_CAT_ID,ELEMENT_SET_NO,REV_AT_EPOCH,BSTAR,MEAN_MOTION_DOT,MEAN_MOTION_DDOT
SHIJIAN-17 (SJ-17),2016-065A,2026-07-07T04:59:53.604384,0.99862499,.0001987,5.8003,72.3634,42.4277,91.3717,0,U,41838,999,3540,0,.126E-5,0
GOES 16,2016-071A,2026-07-07T02:56:54.241728,1.00271557,.0000479,0.3869,85.6444,66.5857,72.4065,0,U,41866,999,3530,0,-.76E-6,0
TIANLIAN 1-04,2016-072A,2026-07-07T04:19:14.223936,1.00269611,.0043731,0.9191,82.7937,90.0247,353.9635,0,U,41869,999,3550,0,.45E-6,0
WGS F8 (USA 272),2016-075A,2026-07-06T23:03:40.293792,1.00266912,.0000259,0.0491,64.0489,250.3243,106.3313,0,U,41879,999,3501,0,0,0
FENGYUN 4A,2016-077A,2026-07-07T03:11:38.663232,1.00273257,.0008127,2.3699,80.0689,157.8567,218.8708,0,U,41882,999,3513,0,-.343E-5,0
ECHOSTAR 19,2016-079A,2026-07-07T00:29:23.335008,1.00271485,.0001339,0.0191,35.4299,74.0084,85.8112,0,U,41893,999,3490,0,-.124E-5,0
JCSAT-110A (JCSAT-15),2016-082A,2026-07-06T19:57:29.776896,1.00270953,.0000592,0.0191,30.1152,95.6004,208.5334,0,U,41903,999,3495,0,-.336E-5,0
STAR ONE D1,2016-082B,2026-07-07T03:20:41.063424,1.00271857,.0002216,0.0153,307.0996,160.8337,143.3485,0,U,41904,999,3497,0,-.196E-5,0
TJS-2,2017-001A,2026-07-07T03:47:51.471168,1.00273260,.0000859,0.8816,85.0783,78.6909,244.9048,0,U,41911,999,3491,0,.8E-7,0
SBIRS GEO-4 (USA 273),2017-004A,2026-07-07T03:58:38.786880,1.00285152,.0002768,2.2790,43.7650,63.1609,259.2085,0,U,41937,999,3479,0,.14E-5,0
HISPASAT 36W-1,2017-006A,2026-07-07T04:30:38.614752,1.00271842,.000118,0.0438,220.6423,241.6750,214.5051,0,U,41942,999,3444,0,-.229E-5,0
TELKOM 3S,2017-007A,2026-07-07T03:27:38.522304,1.00267753,.0002154,0.0186,35.1451,76.3403,343.5439,0,U,41944,999,3434,0,0,0
INTELSAT 32E (IS-32E),2017-007B,2026-07-07T04:38:38.814720,1.00269679,.000074,0.0160,332.9685,11.3752,327.3135,0,U,41945,999,3442,0,-.254E-5,0
ECHOSTAR 23,2017-014A,2026-07-06T23:32:15.052992,1.00272455,.0001991,0.0191,28.9773,77.8578,61.2878,0,U,42070,999,3412,0,-.42E-6,0
WGS F9 (USA 275),2017-016A,2026-07-07T01:42:45.832320,1.00286447,.0000954,0.0170,9.6631,103.8025,185.2774,0,U,42075,999,3409,0,0,0
SES-10,2017-017A,2026-07-07T04:29:16.380096,1.00268911,.0002733,0.0150,38.0524,73.9645,173.5674,0,U,42432,999,3395,0,-.257E-5,0
CHINASAT 16 (SJ-13),2017-018A,2026-07-06T19:27:06.887232,1.00273235,.0004893,0.0913,89.1052,131.8089,106.1895,0,U,42662,999,3394,0,-.337E-5,0
KOREASAT 7,2017-023A,2026-07-07T00:36:35.690112,1.00271712,.000064,0.0177,6.8935,120.9298,282.1947,0,U,42691,999,3356,0,-.347E-5,0
SGDC,2017-023B,2026-07-06T10:01:53.784768,1.00269765,.0002457,0.0251,20.3844,91.9466,247.6951,0,U,42692,999,3360,0,0,0
GSAT-9,2017-024A,2026-07-07T01:54:38.873376,1.00270866,.0002214,0.0675,92.1448,24.3933,294.4950,0,U,42695,999,3349,0,-.271E-5,0
INMARSAT 5-F4,2017-025A,2026-07-07T02:02:21.452928,1.00273097,.0000435,0.0237,37.0830,157.5592,177.5202,0,U,42698,999,3347,0,0,0
SES-15,2017-026A,2026-07-07T03:11:02.065056,1.00279374,.0000578,0.0247,323.6924,188.6340,51.3899,0,U,42709,999,763,0,.74E-6,0
QZS-2 (MICHIBIKI-2),2017-028A,2026-07-06T10:52:56.512704,1.00278986,.07583059,39.3984,242.8697,269.4935,77.5786,0,U,42738,999,781,0,-.103E-5,0
VIASAT-2,2017-029A,2026-07-07T03:08:31.209792,1.00269855,.0000265,0.0240,288.5179,231.2088,102.6338,0,U,42740,999,3340,0,-.25E-5,0
EUTELSAT 172B,2017-029B,2026-07-07T02:35:17.611008,1.00272253,.0000025,0.0304,127.4730,149.5543,218.8789,0,U,42741,999,3394,0,.1E-6,0
GSAT-19,2017-031A,2026-07-07T03:42:38.461248,1.00271711,.000655,0.0171,83.3734,0.8876,304.4066,0,U,42747,999,3334,0,.14E-5,0
ECHOSTAR 21,2017-032A,2026-07-07T02:51:38.529216,1.00271386,.0002243,1.7700,356.9389,100.6983,240.6203,0,U,42749,999,3329,0,.8E-6,0
BULGARIASAT-1,2017-038A,2026-07-07T03:29:23.240832,1.00272315,.0003113,0.0232,288.9799,182.6385,227.7326,0,U,42801,999,3304,0,.26E-6,0
HELLAS-SAT 3,2017-040A,2026-07-06T20:45:53.221248,1.00273705,.000369,0.0589,55.1265,10.8786,209.3183,0,U,42814,999,3300,0,.167E-5,0
GSAT-17,2017-040B,2026-07-07T03:55:13.263744,1.00270524,.0001817,0.0512,89.1290,175.9212,172.3720,0,U,42815,999,3298,0,-.242E-5,0
INTELSAT 35E (IS-35E),2017-041A,2026-07-07T04:30:38.614752,1.00271699,.0001704,0.0154,11.3752,93.1241,213.8363,0,U,42818,999,3301,0,-.223E-5,0
COSMOS 2520,2017-046A,2026-07-07T03:42:38.461248,1.00273107,.0000507,0.0348,103.8541,44.7263,237.1929,0,U,42907,999,3259,0,.152E-5,0
