SHIJIAN-17 (SJ-17)      
1 41838U 16065A   26188.20825931  .00000126  00000+0  00000+0 0  9994
2 41838   5.8003  72.3634 0001987  42.4277  91.3717  0.99862499 35404
GOES 16                 
1 41866U 16071A   26188.12285002 -.00000076  00000+0  00000+0 0  9997
2 41866   0.3869  85.6444 0000479  66.5857  72.4065  1.00271557 35304
TIANLIAN 1-04           
1 41869U 16072A   26188.18002574  .00000045  00000+0  00000+0 0  9993
2 41869   0.9191  82.7937 0043731  90.0247 353.9635  1.00269611 35509
WGS F8 (USA 272)        
1 41879U 16075A   26187.96088303  .00000000  00000+0  00000+0 0  9997
2 41879   0.0491  64.0489 0000259 250.3243 106.3313  1.00266912 35014
FENGYUN 4A              
1 41882U 16077A   26188.13308638 -.00000343  00000+0  00000+0 0  9990
2 41882   2.3699  80.0689 0008127 157.8567 218.8708  1.00273257 35135
ECHOSTAR 19             
1 41893U 16079A   26188.02040897 -.00000124  00000+0  00000+0 0  9999
2 41893   0.0191  35.4299 0001339  74.0084  85.8112  1.00271485 34908
JCSAT-110A (JCSAT-15)   
1 41903U 16082A   26187.83159464 -.00000336  00000+0  00000+0 0  9999
2 41903   0.0191  30.1152 0000592  95.6004 208.5334  1.00270953 34955
STAR ONE D1             
1 41904U 16082B   26188.13936416 -.00000196  00000+0  00000+0 0  9998
2 41904   0.0153 307.0996 0002216 160.8337 143.3485  1.00271857 34974
TJS-2                   
1 41911U 17001A   26188.15823462  .00000008  00000+0  00000+0 0  9997
2 41911   0.8816  85.0783 0000859  78.6909 244.9048  1.00273260 34912
SBIRS GEO-4 (USA 273)   
1 41937U 17004A   26188.16572670  .00000140  00000+0  00000+0 0  9998
2 41937   2.2790  43.7650 0002768  63.1609 259.2085  1.00285152 34797
HISPASAT 36W-1          
1 41942U 17006A   26188.18794693 -.00000229  00000+0  00000+0 0  9998
2 41942   0.0438 220.6423 0001180 241.6750 214.5051  1.00271842 34449
TELKOM 3S               
1 41944U 17007A   26188.14419586  .00000000  00000+0  00000+0 0  9998
2 41944   0.0186  35.1451 0002154  76.3403 343.5439  1.00267753 34349
INTELSAT 32E (IS-32E)   
1 41945U 17007B   26188.19350480 -.00000254  00000+0  00000+0 0  9993
2 41945   0.0160 332.9685 0000740  11.3752 327.3135  1.00269679 34425
ECHOSTAR 23             
1 42070U 17014A   26187.98072978 -.00000042  00000+0  00000+0 0  9995
2 42070   0.0191  28.9773 0001991  77.8578  61.2878  1.00272455 34122
WGS F9 (USA 275)        
1 42075U 17016A   26188.07136380  .00000000  00000+0  00000+0 0  9994
2 42075   0.0170   9.6631 0000954 103.8025 185.2774  1.00286447 34092
SES-10                  
1 42432U 17017A   26188.18699514 -.00000257  00000+0  00000+0 0  9992
2 42432   0.0150  38.0524 0002733  73.9645 173.5674  1.00268911 33955
CHINASAT 16 (SJ-13)     
1 42662U 17018A   26187.81049638 -.00000337  00000+0  00000+0 0  9992
2 42662   0.0913  89.1052 0004893 131.8089 106.1895  1.00273235 33946
KOREASAT 7              
1 42691U 17023A   26188.02541308 -.00000347  00000+0  00000+0 0  9996
2 42691   0.0177   6.8935 0000640 120.9298 282.1947  1.00271712 33562
SGDC                    
1 42692U 17023B   26187.41798362  .00000000  00000+0  00000+0 0  9998
2 42692   0.0251  20.3844 0002457  91.9466 247.6951  1.00269765 33609
GSAT-9                  
1 42695U 17024A   26188.07961659 -.00000271  00000+0  00000+0 0  9997
2 42695   0.0675  92.1448 0002214  24.3933 294.4950  1.00270866 33499
INMARSAT 5-F4           
1 42698U 17025A   26188.08497052  .00000000  00000+0  00000+0 0  9992
2 42698   0.0237  37.0830 0000435 157.5592 177.5202  1.00273097 33470
SES-15                  
1 42709U 17026A   26188.13266279  .00000074  00000+0  00000+0 0  9998
2 42709   0.0247 323.6924 0000578 188.6340  51.3899  1.00279374  7630
QZS-2 (MICHIBIKI-2)     
1 42738U 17028A   26187.45343186 -.00000103  00000+0  00000+0 0  9993
2 42738  39.3984 242.8697 0758305 269.4935  77.5786  1.00278986  7813
VIASAT-2                
1 42740U 17029A   26188.13091678 -.00000250  00000+0  00000+0 0  9992
2 42740   0.0240 288.5179 0000265 231.2088 102.6338  1.00269855 33401
EUTELSAT 172B           
1 42741U 17029B   26188.10784272  .00000010  00000+0  00000+0 0  9992
2 42741   0.0304 127.4730 0000025 149.5543 218.8789  1.00272253 33943
GSAT-19                 
1 42747U 17031A   26188.15461182  .00000140  00000+0  00000+0 0  9992
2 42747   0.0171  83.3734 0006550   0.8876 304.4066  1.00271711 33344
ECHOSTAR 21             
1 42749U 17032A   26188.11919594  .00000080  00000+0  00000+0 0  9999
2 42749   1.7700 356.9389 0002243 100.6983 240.6203  1.00271386 33296
BULGARIASAT-1           
1 42801U 17038A   26188.14540788  .00000026  00000+0  00000+0 0  9992
2 42801   0.0232 288.9799 0003113 182.6385 227.7326  1.00272315 33047
HELLAS-SAT 3            
1 42814U 17040A   26187.86519932  .00000167  00000+0  00000+0 0  9990
2 42814   0.0589  55.1265 0003690  10.8786 209.3183  1.00273705 33002
GSAT-17                 
1 42815U 17040B   26188.16334796 -.00000242  00000+0  00000+0 0  9993
2 42815   0.0512  89.1290 0001817 175.9212 172.3720  1.00270524 32988
INTELSAT 35E (IS-35E)   
1 42818U 17041A   26188.18794693 -.00000223  00000+0  00000+0 0  9994
2 42818   0.0154  11.3752 0001704  93.1241 213.8363  1.00271699 33014
COSMOS 2520             
1 42907U 17046A   26188.15461182  .00000152  00000+0  00000+0 0  9999
2 42907   0.0348 103.8541 0000507  44.7263 237.1929  1.00273107 32592
